{
  "type": "FeatureCollection",
  "features": [
    {
      "type": "Feature",
      "properties": {
        "norad_id": 33376,
        "name": "GALAXY 19 (G-19)",
        "group": "intelsat",
        "lat": 0.004383685558579674,
        "lon": 112.35328717139821,
        "alt_km": 35797.070374704104,
        "timestamp": "2025-12-25T07:41:09.390497+00:00",
        "meta_object_name": "GALAXY 19 (G-19)",
        "meta_object_id": "2008-045A",
        "meta_epoch": "2025-12-24T14:21:03.877920",
        "meta_mean_motion": 1.00271747,
        "meta_eccentricity": 0.00026603,
        "meta_inclination": 0.0428,
        "meta_ra_of_asc_node": 265.007,
        "meta_arg_of_pericenter": 13.9118,
        "meta_mean_anomaly": 292.7134,
        "meta_ephemeris_type": 0,
        "meta_classification_type": "U",
        "meta_norad_cat_id": 33376,
        "meta_element_set_no": 999,
        "meta_rev_at_epoch": 6315,
        "meta_bstar": 0,
        "meta_mean_motion_dot": -1.18e-06,
        "meta_mean_motion_ddot": 0,
        "tle_line1": "1 33376U 08045A   25358.59796155 -.00000118  00000+0  00000+0 0  9998",
        "tle_line2": "2 33376   0.0428 265.0070 0002660  13.9118 292.7134  1.00271747 63157"
      },
      "geometry": {
        "type": "Point",
        "coordinates": [
          112.35328717139821,
          0.004383685558579674
        ]
      }
    },
    {
      "type": "Feature",
      "properties": {
        "norad_id": 35493,
        "name": "FM-5",
        "group": "intelsat",
        "lat": 0.010852056359551205,
        "lon": 123.20944842796197,
        "alt_km": 35783.64341797413,
        "timestamp": "2025-12-25T07:41:09.390508+00:00",
        "meta_object_name": "FM-5",
        "meta_object_id": "2009-034A",
        "meta_epoch": "2025-12-24T19:32:19.073760",
        "meta_mean_motion": 1.00269812,
        "meta_eccentricity": 8.917e-05,
        "meta_inclination": 0.0186,
        "meta_ra_of_asc_node": 295.7777,
        "meta_arg_of_pericenter": 223.7775,
        "meta_mean_anomaly": 140.962,
        "meta_ephemeris_type": 0,
        "meta_classification_type": "U",
        "meta_norad_cat_id": 35493,
        "meta_element_set_no": 999,
        "meta_rev_at_epoch": 4489,
        "meta_bstar": 0,
        "meta_mean_motion_dot": -1.79e-06,
        "meta_mean_motion_ddot": 0,
        "tle_line1": "1 35493U 09034A   25358.81410965 -.00000179  00000+0  00000+0 0  9993",
        "tle_line2": "2 35493   0.0186 295.7777 0000891 223.7775 140.9620  1.00269812 44892"
      },
      "geometry": {
        "type": "Point",
        "coordinates": [
          123.20944842796197,
          0.010852056359551205
        ]
      }
    },
    {
      "type": "Feature",
      "properties": {
        "norad_id": 36097,
        "name": "INTELSAT 14 (IS-14)",
        "group": "intelsat",
        "lat": 0.01585295850610764,
        "lon": 164.3174005035692,
        "alt_km": 35792.77479321868,
        "timestamp": "2025-12-25T07:41:09.390520+00:00",
        "meta_object_name": "INTELSAT 14 (IS-14)",
        "meta_object_id": "2009-064A",
        "meta_epoch": "2025-12-24T11:10:22.140192",
        "meta_mean_motion": 1.00269035,
        "meta_eccentricity": 0.0002637,
        "meta_inclination": 0.013,
        "meta_ra_of_asc_node": 11.8022,
        "meta_arg_of_pericenter": 274.0942,
        "meta_mean_anomaly": 289.9229,
        "meta_ephemeris_type": 0,
        "meta_classification_type": "U",
        "meta_norad_cat_id": 36097,
        "meta_element_set_no": 999,
        "meta_rev_at_epoch": 5885,
        "meta_bstar": 0,
        "meta_mean_motion_dot": -2.53e-06,
        "meta_mean_motion_ddot": 0,
        "tle_line1": "1 36097U 09064A   25358.46553403 -.00000253  00000+0  00000+0 0  9996",
        "tle_line2": "2 36097   0.0130  11.8022 0002637 274.0942 289.9229  1.00269035 58854"
      },
      "geometry": {
        "type": "Point",
        "coordinates": [
          164.3174005035692,
          0.01585295850610764
        ]
      }
    },
    {
      "type": "Feature",
      "properties": {
        "norad_id": 36106,
        "name": "INTELSAT 15 (IS-15)",
        "group": "intelsat",
        "lat": -0.0284044961064099,
        "lon": -65.47521751141245,
        "alt_km": 35776.67252802937,
        "timestamp": "2025-12-25T07:41:09.390532+00:00",
        "meta_object_name": "INTELSAT 15 (IS-15)",
        "meta_object_id": "2009-067A",
        "meta_epoch": "2025-12-24T19:44:15.860256",
        "meta_mean_motion": 1.00270653,
        "meta_eccentricity": 0.00023338,
        "meta_inclination": 0.0103,
        "meta_ra_of_asc_node": 45.3233,
        "meta_arg_of_pericenter": 240.4709,
        "meta_mean_anomaly": 189.0214,
        "meta_ephemeris_type": 0,
        "meta_classification_type": "U",
        "meta_norad_cat_id": 36106,
        "meta_element_set_no": 999,
        "meta_rev_at_epoch": 3948,
        "meta_bstar": 0,
        "meta_mean_motion_dot": -1.64e-06,
        "meta_mean_motion_ddot": 0,
        "tle_line1": "1 36106U 09067A   25358.82240579 -.00000164  00000+0  00000+0 0  9998",
        "tle_line2": "2 36106   0.0103  45.3233 0002333 240.4709 189.0214  1.00270653 39482"
      },
      "geometry": {
        "type": "Point",
        "coordinates": [
          -65.47521751141245,
          -0.0284044961064099
        ]
      }
    },
    {
      "type": "Feature",
      "properties": {
        "norad_id": 36131,
        "name": "DIRECTV 12",
        "group": "intelsat",
        "lat": 0.011746426588713653,
        "lon": 106.66487959095875,
        "alt_km": 35787.46014666329,
        "timestamp": "2025-12-25T07:41:09.390544+00:00",
        "meta_object_name": "DIRECTV 12",
        "meta_object_id": "2009-075A",
        "meta_epoch": "2025-12-24T14:19:26.533632",
        "meta_mean_motion": 1.00274235,
        "meta_eccentricity": 5.749e-05,
        "meta_inclination": 0.0184,
        "meta_ra_of_asc_node": 118.0209,
        "meta_arg_of_pericenter": 200.6669,
        "meta_mean_anomaly": 246.8321,
        "meta_ephemeris_type": 0,
        "meta_classification_type": "U",
        "meta_norad_cat_id": 36131,
        "meta_element_set_no": 999,
        "meta_rev_at_epoch": 4480,
        "meta_bstar": 0,
        "meta_mean_motion_dot": -8.3e-07,
        "meta_mean_motion_ddot": 0,
        "tle_line1": "1 36131U 09075A   25358.59683488 -.00000083  00000+0  00000+0 0  9999",
        "tle_line2": "2 36131   0.0184 118.0209 0000574 200.6669 246.8321  1.00274235 44801"
      },
      "geometry": {
        "type": "Point",
        "coordinates": [
          106.66487959095875,
          0.011746426588713653
        ]
      }
    },
    {
      "type": "Feature",
      "properties": {
        "norad_id": 36397,
        "name": "INTELSAT 16 (IS-16)",
        "group": "intelsat",
        "lat": 0.015218616062640255,
        "lon": 133.1578467302937,
        "alt_km": 35791.96258704828,
        "timestamp": "2025-12-25T07:41:09.390556+00:00",
        "meta_object_name": "INTELSAT 16 (IS-16)",
        "meta_object_id": "2010-006A",
        "meta_epoch": "2025-12-24T10:06:12.528576",
        "meta_mean_motion": 1.00270629,
        "meta_eccentricity": 0.00018004,
        "meta_inclination": 0.01,
        "meta_ra_of_asc_node": 332.683,
        "meta_arg_of_pericenter": 296.3465,
        "meta_mean_anomaly": 259.5301,
        "meta_ephemeris_type": 0,
        "meta_classification_type": "U",
        "meta_norad_cat_id": 36397,
        "meta_element_set_no": 999,
        "meta_rev_at_epoch": 5790,
        "meta_bstar": 0,
        "meta_mean_motion_dot": -2.24e-06,
        "meta_mean_motion_ddot": 0,
        "tle_line1": "1 36397U 10006A   25358.42097834 -.00000224  00000+0  00000+0 0  9992",
        "tle_line2": "2 36397   0.0100 332.6830 0001800 296.3465 259.5301  1.00270629 57903"
      },
      "geometry": {
        "type": "Point",
        "coordinates": [
          133.1578467302937,
          0.015218616062640255
        ]
      }
    },
    {
      "type": "Feature",
      "properties": {
        "norad_id": 37185,
        "name": "XM-5",
        "group": "intelsat",
        "lat": 0.014969572153874266,
        "lon": 94.16681419357549,
        "alt_km": 35781.06256086958,
        "timestamp": "2025-12-25T07:41:09.390568+00:00",
        "meta_object_name": "XM-5",
        "meta_object_id": "2010-053A",
        "meta_epoch": "2025-12-24T10:34:19.786656",
        "meta_mean_motion": 1.00277155,
        "meta_eccentricity": 0.00021079,
        "meta_inclination": 0.067,
        "meta_ra_of_asc_node": 268.4495,
        "meta_arg_of_pericenter": 252.7421,
        "meta_mean_anomaly": 335.4128,
        "meta_ephemeris_type": 0,
        "meta_classification_type": "U",
        "meta_norad_cat_id": 37185,
        "meta_element_set_no": 999,
        "meta_rev_at_epoch": 5573,
        "meta_bstar": 0,
        "meta_mean_motion_dot": -3e-08,
        "meta_mean_motion_ddot": 0,
        "tle_line1": "1 37185U 10053A   25358.44050679 -.00000003  00000+0  00000+0 0  9993",
        "tle_line2": "2 37185   0.0670 268.4495 0002107 252.7421 335.4128  1.00277155 55734"
      },
      "geometry": {
        "type": "Point",
        "coordinates": [
          94.16681419357549,
          0.014969572153874266
        ]
      }
    }
  ]
}